{
    "type": "FeatureCollection",
    "features": [
      {
        "type": "Feature",
        "properties": {},
        "geometry": {
          "type": "Polygon",
          "coordinates": [
            [
              [
                19.758911132812496,
                42.633958722673135
              ],
              [
                19.3194580078125,
                41.87774145109676
              ],
              [
                19.6051025390625,
                41.775408403663285
              ],
              [
                19.423828125,
                41.566141964768384
              ],
              [
                19.2645263671875,
                40.50544628405211
              ],
              [
                19.3853759765625,
                39.854937988531276
              ],
              [
                19.86328125,
                39.457402514270825
              ],
              [
                20.1104736328125,
                39.35978526869001
              ],
              [
                20.313720703125,
                39.76632525654491
              ],
              [
                21.478271484375,
                40.959159772134896
              ],
              [
                20.23681640625,
                42.819580715795915
              ],
              [
                19.758911132812496,
                42.633958722673135
              ]
            ]
          ]
        }
      }
    ]
  }