{
  "type": "FeatureCollection",
  "features": [
    {
      "type": "Feature",
      "properties": {
        "stroke": "#555555",
        "stroke-width": 2,
        "stroke-opacity": 1,
        "fill": "#555555",
        "fill-opacity": 0.5
      },
      "geometry": {
        "type": "Polygon",
        "coordinates": [
          [
            [
              8.519897460937498,
              36.94111143010769
            ],
            [
              8.228759765625,
              36.958671131530316
            ],
            [
              7.877197265625,
              36.85325222344018
            ],
            [
              7.250976562499999,
              37.10776507118514
            ],
            [
              7.14111328125,
              37.08585785263673
            ],
            [
              7.207031249999999,
              37.00693943418586
            ],
            [
              6.981811523437499,
              36.923547681089296
            ],
            [
              6.4764404296875,
              37.10338413422305
            ],
            [
              6.2237548828125,
              37.03325468997236
            ],
            [
              6.185302734375,
              36.94550173495345
            ],
            [
              5.614013671875,
              36.81368259124586
            ],
            [
              5.460205078125,
              36.6992553955527
            ],
            [
              5.130615234375,
              36.70365959719456
            ],
            [
              5.1416015625,
              36.81808022778526
            ],
            [
              4.7021484375,
              36.92793899776678
            ],
            [
              3.7683105468749996,
              36.92793899776678
            ],
            [
              3.4606933593749996,
              36.80048816579081
            ],
            [
              2.96630859375,
              36.85764758564407
            ],
            [
              2.8070068359375,
              36.77409249464195
            ],
            [
              2.6641845703125,
              36.66841891894786
            ],
            [
              2.5268554687499996,
              36.61552763134925
            ],
            [
              2.2576904296875,
              36.681636065615216
            ],
            [
              2.032470703125,
              36.60670888641815
            ],
            [
              1.3128662109375,
              36.54053616262899
            ],
            [
              0.9173583984375001,
              36.461054075054314
            ],
            [
              0.1263427734375,
              36.11125252076156
            ],
            [
              -0.0714111328125,
              35.82226734114509
            ],
            [
              -0.428466796875,
              35.93798832265393
            ],
            [
              -0.5108642578125,
              35.81335872633348
            ],
            [
              -0.626220703125,
              35.74205383068037
            ],
            [
              -0.823974609375,
              35.79553849799263
            ],
            [
              -1.1920166015625,
              35.594785665487244
            ],
            [
              -1.3238525390624998,
              35.37561413174875
            ],
            [
              -1.8017578124999998,
              35.17380831799959
            ],
            [
              -2.186279296875,
              35.110921809704756
            ],
            [
              -1.2579345703125,
              32.091882620021806
            ],
            [
              3.076171875,
              33.41310221370827
            ],
            [
              5.833740234375,
              34.732584206123626
            ],
            [
              7.943115234375001,
              34.45221847282654
            ],
            [
              8.316650390625,
              34.70549341022544
            ],
            [
              8.519897460937498,
              36.94111143010769
            ]
          ]
        ]
      }
    },
    {
      "type": "Feature",
      "properties": {},
      "geometry": {
        "type": "Polygon",
        "coordinates": [
          [
            [
              11.8927001953125,
              36.83127162140714
            ],
            [
              11.97509765625,
              36.71026542647845
            ],
            [
              12.07122802734375,
              36.74768773190056
            ],
            [
              12.07672119140625,
              36.81148367823279
            ],
            [
              11.99981689453125,
              36.85984517196147
            ],
            [
              11.8927001953125,
              36.83127162140714
            ]
          ]
        ]
      }
    },
    {
      "type": "Feature",
      "properties": {},
      "geometry": {
        "type": "Polygon",
        "coordinates": [
          [
            [
              12.50244140625,
              35.5137842234445
            ],
            [
              12.610931396484375,
              35.48527461007853
            ],
            [
              12.645950317382812,
              35.507635947037855
            ],
            [
              12.624664306640623,
              35.52831464152824
            ],
            [
              12.507247924804688,
              35.53110865111194
            ],
            [
              12.50244140625,
              35.5137842234445
            ]
          ]
        ]
      }
    },
    {
      "type": "Feature",
      "properties": {},
      "geometry": {
        "type": "Polygon",
        "coordinates": [
          [
            [
              9.159851074218752,
              37.229234951946786
            ],
            [
              8.536376953125,
              36.94220903003596
            ],
            [
              7.976074218750001,
              34.45788034775209
            ],
            [
              10.145874023437502,
              33.949056098180904
            ],
            [
              10.046997070312502,
              34.15386343128204
            ],
            [
              10.772094726562502,
              34.66597009307397
            ],
            [
              11.041259765625002,
              34.58912801692681
            ],
            [
              11.35986328125,
              34.720168693111084
            ],
            [
              11.151123046875002,
              35.18840002173177
            ],
            [
              11.046752929687502,
              35.81447235785307
            ],
            [
              10.74462890625,
              35.7843988251953
            ],
            [
              10.5743408203125,
              35.91685961322499
            ],
            [
              10.502929687500002,
              36.174465495763606
            ],
            [
              10.557861328125002,
              36.36822190085111
            ],
            [
              10.799560546875002,
              36.45000844447084
            ],
            [
              11.140136718750002,
              36.8631414329529
            ],
            [
              11.063232421875002,
              37.08695336399672
            ],
            [
              10.739135742187502,
              37.161410980996706
            ],
            [
              10.316162109375002,
              36.779592342620816
            ],
            [
              10.346374511718752,
              36.9092741551487
            ],
            [
              10.206298828125002,
              37.02119466245163
            ],
            [
              10.239257812500002,
              37.170165884620566
            ],
            [
              9.788818359375,
              37.37997911184045
            ],
            [
              9.159851074218752,
              37.229234951946786
            ]
          ]
        ]
      }
    }
  ]
}