{
    "type": "FeatureCollection",
    "features": [
      {
        "type": "Feature",
        "properties": {},
        "geometry": {
          "coordinates": [
            [
              [
                -6.448626078204512,
                38.11926126799699
              ],
              [
                -7.008851427056186,
                38.30051876820747
              ],
              [
                -7.602031221584724,
                37.607602679958944
              ],
              [
                -7.437259114106922,
                37.136198240254075
              ],
              [
                -6.525519827237645,
                36.741102901379534
              ],
              [
                -6.195975504207809,
                36.19340245399495
              ],
              [
                -5.6357501569643205,
                35.93589430235669
              ],
              [
                -4.196739962134018,
                36.64421279072401
              ],
              [
                -2.142580355056708,
                36.6442127870708
              ],
              [
                -1.5054613680218267,
                37.31113781853382
              ],
              [
                -1.9118998680995105,
                37.85953977278473
              ],
              [
                -2.6259126831380684,
                38.575851575134806
              ],
              [
                -5.064540062442006,
                38.80734628618006
              ],
              [
                -5.635750169280186,
                38.455522733134984
              ],
              [
                -5.591810927934972,
                38.2487769551752
              ],
              [
                -6.448626078204512,
                38.11926126799699
              ]
            ]
          ],
          "type": "Polygon"
        }
      }
    ]
  }