{ "type": "Feature", "properties": { "CNTR_ID": "BG", "CNTR_NAME": "България", "NAME_ENGL": "Bulgaria", "ISO3_CODE": "BGR", "FID_1": "BG", "Area": 213.78306271899999, "EEA39": 1 }, "geometry": { "type": "Polygon", "coordinates": [ [ [ 23.2255257918724, 41.341156461229275 ], [ 23.22044, 41.33306 ], [ 23.19873, 41.32271 ], [ 23.18945, 41.32239 ], [ 23.18124, 41.31939 ], [ 23.17481, 41.32123 ], [ 23.13458, 41.32024 ], [ 23.11895, 41.32048 ], [ 23.10644, 41.31682 ], [ 23.08641, 41.31934 ], [ 23.08007, 41.31978 ], [ 23.05596, 41.32574 ], [ 23.03329, 41.33272 ], [ 23.02729, 41.33326 ], [ 23.01678, 41.33004 ], [ 23.00349, 41.33059 ], [ 22.98355, 41.33563 ], [ 22.97456, 41.33287 ], [ 22.95141, 41.33528 ], [ 22.93176, 41.34039 ], [ 22.92759, 41.33854 ], [ 22.92826, 41.34124 ], [ 22.93793, 41.34173 ], [ 22.95019, 41.35173 ], [ 22.96508, 41.35303 ], [ 22.9622, 41.3795 ], [ 22.96626, 41.39296 ], [ 22.96044, 41.40855 ], [ 22.95512, 41.4122 ], [ 22.95277, 41.41753 ], [ 22.95689, 41.42372 ], [ 22.96334, 41.43057 ], [ 22.96984, 41.43204 ], [ 22.97765, 41.44204 ], [ 22.97735, 41.45173 ], [ 22.96459, 41.46435 ], [ 22.966556739850489, 41.471789407260474 ], [ 22.982829996000106, 41.466039920000043 ], [ 23.020329994000122, 41.453249781000039 ], [ 23.048179873000038, 41.455830058000117 ], [ 23.053870071000119, 41.436860034000119 ], [ 23.192139739000055, 41.357849951000048 ], [ 23.2255257918724, 41.341156461229275 ] ] ] } }