{
    "type": "FeatureCollection",
    "features": [
      {
        "type": "Feature",
        "properties": {},
        "geometry": {
          "type": "Polygon",
          "coordinates": [
            [
              [
                1.285400390625,
                38.98823513440445
              ],
              [
                1.198883056640625,
                38.99410572845627
              ],
              [
                1.1844635009765625,
                38.8594935943241
              ],
              [
                1.2421417236328125,
                38.85628543076681
              ],
              [
                1.3602447509765625,
                38.862701613150506
              ],
              [
                1.3835906982421875,
                38.64047263931151
              ],
              [
                1.6019439697265625,
                38.66460319073766
              ],
              [
                1.4876174926757812,
                38.79797859970465
              ],
              [
                1.4065933227539062,
                38.88087765252438
              ],
              [
                1.6510391235351562,
                39.033319472320926
              ],
              [
                1.6053771972656248,
                39.09063374203144
              ],
              [
                1.5331077575683594,
                39.11927342571873
              ],
              [
                1.3599014282226562,
                39.075576592420575
              ],
              [
                1.3272857666015625,
                39.05811693656559
              ],
              [
                1.2871170043945312,
                39.028652309716236
              ],
              [
                1.2912368774414062,
                39.00944702694206
              ],
              [
                1.2811088562011719,
                38.998908579579016
              ],
              [
                1.285400390625,
                38.98823513440445
              ]
            ]
          ]
        }
      },
      {
        "type": "Feature",
        "properties": {},
        "geometry": {
          "type": "Polygon",
          "coordinates": [
            [
              [
                2.31536865234375,
                39.592990390285024
              ],
              [
                2.955322265625,
                39.104488809440475
              ],
              [
                3.4909057617187496,
                39.71352536237346
              ],
              [
                3.21624755859375,
                39.96870074491696
              ],
              [
                2.89764404296875,
                39.91605629078665
              ],
              [
                2.31536865234375,
                39.592990390285024
              ]
            ]
          ]
        }
      },
      {
        "type": "Feature",
        "properties": {},
        "geometry": {
          "type": "Polygon",
          "coordinates": [
            [
              [
                3.82598876953125,
                40.0517964064166
              ],
              [
                3.772430419921875,
                39.92448212528485
              ],
              [
                4.288787841796875,
                39.79376521264885
              ],
              [
                4.35333251953125,
                39.90973623453719
              ],
              [
                4.102020263671875,
                40.09067983779908
              ],
              [
                3.82598876953125,
                40.0517964064166
              ]
            ]
          ]
        }
      },
      {
        "type": "Feature",
        "properties": {},
        "geometry": {
          "type": "Polygon",
          "coordinates": [
            [
              [
                -13.480224609375,
                29.407301406928987
              ],
              [
                -13.54339599609375,
                29.42524498547202
              ],
              [
                -13.853759765625,
                29.03215782622282
              ],
              [
                -14.315185546875,
                28.19066445292799
              ],
              [
                -14.515686035156248,
                28.091366281406945
              ],
              [
                -14.400329589843748,
                28.016226126405627
              ],
              [
                -13.90594482421875,
                28.23180985121183
              ],
              [
                -13.46923828125,
                28.986519871823326
              ],
              [
                -13.41156005859375,
                29.182140281833586
              ],
              [
                -13.480224609375,
                29.407301406928987
              ]
            ]
          ]
        }
      },
      {
        "type": "Feature",
        "properties": {},
        "geometry": {
          "type": "Polygon",
          "coordinates": [
            [
              [
                -15.710449218749998,
                28.179770371412083
              ],
              [
                -15.9027099609375,
                27.916766641249065
              ],
              [
                -15.618438720703123,
                27.69325634309158
              ],
              [
                -15.316314697265623,
                27.90099025981739
              ],
              [
                -15.375366210937498,
                28.208818788396872
              ],
              [
                -15.710449218749998,
                28.179770371412083
              ]
            ]
          ]
        }
      },
      {
        "type": "Feature",
        "properties": {},
        "geometry": {
          "type": "Polygon",
          "coordinates": [
            [
              [
                -16.9464111328125,
                28.37327715450343
              ],
              [
                -16.688232421875,
                27.943459889766487
              ],
              [
                -16.403961181640625,
                28.143448752478196
              ],
              [
                -16.107330322265625,
                28.578492028124163
              ],
              [
                -16.44378662109375,
                28.54713206234115
              ],
              [
                -16.95465087890625,
                28.370860490997323
              ],
              [
                -16.9464111328125,
                28.37327715450343
              ]
            ]
          ]
        }
      },
      {
        "type": "Feature",
        "properties": {},
        "geometry": {
          "type": "Polygon",
          "coordinates": [
            [
              [
                -17.3199462890625,
                28.25116690523149
              ],
              [
                -17.3638916015625,
                28.081673729044283
              ],
              [
                -17.174377441406246,
                27.99318879723613
              ],
              [
                -17.068634033203125,
                28.143448752478196
              ],
              [
                -17.3199462890625,
                28.25116690523149
              ]
            ]
          ]
        }
      },
      {
        "type": "Feature",
        "properties": {},
        "geometry": {
          "type": "Polygon",
          "coordinates": [
            [
              [
                -17.84866333007812,
                27.839076094777816
              ],
              [
                -17.942047119140625,
                27.856075662679814
              ],
              [
                -18.204345703125,
                27.737022779516813
              ],
              [
                -17.975006103515625,
                27.606887772143075
              ],
              [
                -17.84866333007812,
                27.839076094777816
              ]
            ]
          ]
        }
      },
      {
        "type": "Feature",
        "properties": {},
        "geometry": {
          "type": "Polygon",
          "coordinates": [
            [
              [
                -18.053970336914062,
                28.86752641945234
              ],
              [
                -17.84454345703125,
                28.438506249680675
              ],
              [
                -17.740859985351562,
                28.585727616133926
              ],
              [
                -17.73193359375,
                28.84587658169983
              ],
              [
                -18.053970336914062,
                28.86752641945234
              ]
            ]
          ]
        }
      }
    ]
  }