{
    "type": "FeatureCollection",
    "features": [
      {
        "type": "Feature",
        "properties": {},
        "geometry": {
          "type": "Polygon",
          "coordinates": [
            [
              [
                13.55712890625,
                46.00459325574482
              ],
              [
                13.436279296875,
                45.71385093029221
              ],
              [
                13.7548828125,
                45.590978249451936
              ],
              [
                13.458251953125,
                45.47554027158593
              ],
              [
                13.853759765625,
                44.809121700077355
              ],
              [
                16.842041015625,
                42.73894375124377
              ],
              [
                18.47900390625,
                42.5530802889558
              ],
              [
                18.47900390625,
                43.004647127794435
              ],
              [
                13.699951171875,
                46.13417004624326
              ],
              [
                13.55712890625,
                46.00459325574482
              ]
            ]
          ]
        }
      }
    ]
  }