{
    "type": "FeatureCollection",
    "features": [
      {
        "type": "Feature",
        "properties": {},
        "geometry": {
          "type": "Polygon",
          "coordinates": [
            [
              [
                31.003417968749996,
                31.59725256170666
              ],
              [
                30.377197265625,
                31.475524020001806
              ],
              [
                29.135742187499996,
                30.826780904779774
              ],
              [
                29.729003906249996,
                30.72294882477251
              ],
              [
                30.6903076171875,
                31.287939892641734
              ],
              [
                30.596923828125,
                31.41460027631321
              ],
              [
                31.003417968749996,
                31.59725256170666
              ]
            ]
          ]
        }
      }
    ]
  }