{
    "type": "FeatureCollection",
    "features": [
      {
        "type": "Feature",
        "properties": {},
        "geometry": {
          "type": "Polygon",
          "coordinates": [
            [
              [
                2.7410888671875,
                42.42142901536395
              ],
              [
                3.14208984375,
                42.4417010906216
              ],
              [
                3.05419921875,
                42.98857645832184
              ],
              [
                3.21624755859375,
                43.20917969039356
              ],
              [
                3.504638671875,
                43.279204926082784
              ],
              [
                3.9413452148437504,
                43.5326204268101
              ],
              [
                4.22149658203125,
                43.46089378008257
              ],
              [
                4.833984374999999,
                43.329173667843904
              ],
              [
                5.262451171875,
                43.3351671567243
              ],
              [
                5.34759521484375,
                43.34116005412307
              ],
              [
                5.34759521484375,
                43.22319117678928
              ],
              [
                5.7843017578125,
                43.12303850442337
              ],
              [
                5.83648681640625,
                43.04681263770761
              ],
              [
                6.031494140625,
                43.08493742707592
              ],
              [
                6.20452880859375,
                42.984558134256076
              ],
              [
                6.44622802734375,
                43.00866413845207
              ],
              [
                6.6741943359375,
                43.207177786666655
              ],
              [
                6.712646484375,
                43.35114690203121
              ],
              [
                7.5421142578125,
                43.777043519302175
              ],
              [
                7.6629638671875,
                43.99281450048989
              ],
              [
                6.317138671875,
                44.59046718130883
              ],
              [
                4.8779296875,
                45.75219336063106
              ],
              [
                2.63671875,
                44.42593442145313
              ],
              [
                2.7410888671875,
                42.42142901536395
              ]
            ]
          ]
        }
      }
    ]
  }