{ "type": "Feature", "properties": { "CNTR_ID": "GI", "CNTR_NAME": "Gibraltar", "NAME_ENGL": "Gibraltar", "ISO3_CODE": "GIB", "FID_1": "GI", "Area": 3.9333232604599999, "EEA39": 1 }, "geometry": { "type": "Polygon", "coordinates": [ [ [ -5.33922, 36.15203 ], [ -5.34126, 36.12467 ], [ -5.34805, 36.11354 ], [ -5.350156130325701, 36.116669720382333 ], [ -5.350990005999904, 36.124979992000107 ], [ -5.353350081999878, 36.151519931000109 ], [ -5.353477707082732, 36.151786917166959 ], [ -5.35152, 36.15257 ], [ -5.34401, 36.15263 ], [ -5.33922, 36.15203 ] ] ] } }