{
    "type": "FeatureCollection",
    "features": [
      {
        "type": "Feature",
        "properties": {},
        "geometry": {
          "type": "Polygon",
          "coordinates": [
            [
              [
                21.522216796875,
                40.91351257612758
              ],
              [
                19.830322265625,
                39.45316112807394
              ],
              [
                20.3466796875,
                38.16911413556086
              ],
              [
                20.7806396484375,
                37.67077737288316
              ],
              [
                21.7474365234375,
                36.677230602346214
              ],
              [
                22.5,
                36.37706783983682
              ],
              [
                23.329467773437496,
                35.81335872633348
              ],
              [
                23.53271484375,
                35.263561862152095
              ],
              [
                24.08203125,
                34.80929324176267
              ],
              [
                26.202392578124996,
                34.88593094075317
              ],
              [
                27.2515869140625,
                35.50092819950358
              ],
              [
                27.3779296875,
                35.871246850027966
              ],
              [
                25.37841796875,
                37.79676317682161
              ],
              [
                24.2578125,
                40.863679665481676
              ],
              [
                24.06005859375,
                41.47566020027821
              ],
              [
                21.86279296875,
                41.49212083968776
              ],
              [
                21.522216796875,
                40.91351257612758
              ]
            ]
          ]
        }
      }
    ]
  }