{
    "type": "FeatureCollection",
    "features": [
      {
        "type": "Feature",
        "properties": {},
        "geometry": {
          "type": "Polygon",
          "coordinates": [
            [
              [
                20.5609130859375,
                31.615965936476076
              ],
              [
                21.324462890625,
                32.05464469054932
              ],
              [
                23.09326171875,
                32.338200271527754
              ],
              [
                23.126220703125,
                32.64400044827676
              ],
              [
                22.313232421875,
                32.88420028540548
              ],
              [
                22.20062255859375,
                32.88189375925038
              ],
              [
                22.17178344726562,
                32.93492866908233
              ],
              [
                22.1099853515625,
                32.94069141865106
              ],
              [
                22.039947509765625,
                32.90726224488304
              ],
              [
                21.875152587890625,
                32.906109289516756
              ],
              [
                21.710357666015625,
                32.9464537926927
              ],
              [
                21.350555419921875,
                32.77572870013365
              ],
              [
                21.0992431640625,
                32.778037985363675
              ],
              [
                20.2862548828125,
                32.39155837235158
              ],
              [
                19.962158203125,
                32.02670629333614
              ],
              [
                19.9072265625,
                31.695455797778713
              ],
              [
                20.11871337890625,
                31.22454577964161
              ],
              [
                20.14068603515625,
                31.067050772707812
              ],
              [
                20.09124755859375,
                30.95641324406724
              ],
              [
                20.5609130859375,
                31.615965936476076
              ]
            ]
          ]
        }
      }
    ]
  }