{ "type": "Feature", "properties": { "CNTR_ID": "MT", "CNTR_NAME": "Malta-Malta", "NAME_ENGL": "Malta", "ISO3_CODE": "MLT", "FID_1": "MT", "Area": 245.69997627500001, "EEA39": 1 }, "geometry": { "type": "MultiPolygon", "coordinates": [ [ [ [ 14.54256, 35.8206 ], [ 14.54601, 35.8175 ], [ 14.53877715100046, 35.811066869138273 ], [ 14.538739948000057, 35.811240067000114 ], [ 14.534534325916496, 35.82015905475788 ], [ 14.53862, 35.81839 ], [ 14.54256, 35.8206 ] ] ], [ [ [ 14.326931479711732, 35.979474118740001 ], [ 14.336739962000053, 35.976569989000041 ], [ 14.355659996000099, 35.978639984000068 ], [ 14.356304845695973, 35.97739780614296 ], [ 14.35133, 35.97388 ], [ 14.3509, 35.9698 ], [ 14.35508, 35.96671 ], [ 14.358576760700544, 35.967342441647048 ], [ 14.350940021000099, 35.951580082000135 ], [ 14.356050056000129, 35.948060035000111 ], [ 14.369960034000144, 35.952669998000061 ], [ 14.382249924000064, 35.948619955000169 ], [ 14.385320065000144, 35.941139986000053 ], [ 14.375659913000135, 35.929110078000093 ], [ 14.378869989000094, 35.923250021000086 ], [ 14.385740048000088, 35.923000248000108 ], [ 14.393500065000069, 35.930139970000113 ], [ 14.402909916000084, 35.945019994000091 ], [ 14.406969993000104, 35.9480899590001 ], [ 14.414439928000093, 35.949500054000055 ], [ 14.42351006100003, 35.941430067000084 ], [ 14.427920065000052, 35.932120019000081 ], [ 14.438609934000084, 35.9327299280001 ], [ 14.445570115000095, 35.921649999000124 ], [ 14.453200053000074, 35.916350038000076 ], [ 14.471329933000106, 35.913569979000016 ], [ 14.477879988000097, 35.907229916000091 ], [ 14.488360041000078, 35.89635012100004 ], [ 14.500769977000061, 35.88787000700006 ], [ 14.503534061175202, 35.886402091985559 ], [ 14.50016, 35.88341 ], [ 14.50361, 35.8792 ], [ 14.50399, 35.88256 ], [ 14.507449613189038, 35.884322669932232 ], [ 14.519600065000134, 35.877869961000073 ], [ 14.532080056000041, 35.873970063000087 ], [ 14.550290026000113, 35.866310026000093 ], [ 14.553339748000127, 35.862719923000043 ], [ 14.556510044000078, 35.853350028000079 ], [ 14.556400822238288, 35.827715714348216 ], [ 14.54775, 35.838 ], [ 14.54532, 35.8379 ], [ 14.54508, 35.83199 ], [ 14.54161, 35.82993 ], [ 14.53674, 35.8321 ], [ 14.53152, 35.82989 ], [ 14.53183, 35.82133 ], [ 14.53352188549016, 35.820597431024993 ], [ 14.525980084000082, 35.821029945000106 ], [ 14.520540011000094, 35.81499017200008 ], [ 14.521219702367887, 35.80724407530559 ], [ 14.51642, 35.80686 ], [ 14.50032, 35.81172 ], [ 14.4735, 35.81474 ], [ 14.45693, 35.82222 ], [ 14.45122, 35.81947 ], [ 14.43023, 35.8263 ], [ 14.41721, 35.82861 ], [ 14.4143, 35.83352 ], [ 14.39764, 35.83883 ], [ 14.38945, 35.84608 ], [ 14.38363, 35.84903 ], [ 14.38038, 35.84858 ], [ 14.37616, 35.85225 ], [ 14.37169, 35.85392 ], [ 14.36907, 35.85686 ], [ 14.3622, 35.8603 ], [ 14.36183, 35.86195 ], [ 14.36012, 35.86346 ], [ 14.33805, 35.87853 ], [ 14.33556, 35.88942 ], [ 14.32929, 35.89675 ], [ 14.32934, 35.90605 ], [ 14.3409, 35.90611 ], [ 14.33275, 35.91827 ], [ 14.335, 35.92249 ], [ 14.34327, 35.92135 ], [ 14.34024, 35.92748 ], [ 14.34359, 35.92895 ], [ 14.34294, 35.93092 ], [ 14.34261, 35.93414 ], [ 14.32937, 35.94131 ], [ 14.33591, 35.9456 ], [ 14.34089, 35.95323 ], [ 14.33638, 35.96801 ], [ 14.33329, 35.96993 ], [ 14.32313, 35.96884 ], [ 14.31995, 35.97133 ], [ 14.32295, 35.97688 ], [ 14.326931479711732, 35.979474118740001 ] ] ], [ [ [ 14.21677, 36.08059 ], [ 14.21906, 36.07964 ], [ 14.22142769039246, 36.079877588309273 ], [ 14.248189949000079, 36.068919921000088 ], [ 14.269699941000084, 36.069239925 ], [ 14.270419539225884, 36.068870809063895 ], [ 14.27448, 36.06582 ], [ 14.279818824484181, 36.064049471472146 ], [ 14.289779947000085, 36.058939941000091 ], [ 14.31080007500006, 36.038169937000106 ], [ 14.314150088000133, 36.027860095000079 ], [ 14.313057068637562, 36.026845030894691 ], [ 14.30844, 36.02635 ], [ 14.29922, 36.02642 ], [ 14.297593894626289, 36.023617678405884 ], [ 14.294100005000132, 36.024770065000013 ], [ 14.282129943000115, 36.025020013000102 ], [ 14.273750003772449, 36.019182081810953 ], [ 14.27146, 36.02046 ], [ 14.271016401034416, 36.017347288614388 ], [ 14.266783542528998, 36.01453780048621 ], [ 14.26179, 36.01236 ], [ 14.25131, 36.01825 ], [ 14.23064, 36.0212 ], [ 14.22007, 36.02111 ], [ 14.21339, 36.02651 ], [ 14.21279, 36.0312 ], [ 14.2105, 36.03126 ], [ 14.20942, 36.03287 ], [ 14.20532, 36.03341 ], [ 14.2037, 36.03464 ], [ 14.19347, 36.03325 ], [ 14.18736, 36.03667 ], [ 14.19226, 36.04655 ], [ 14.18876, 36.05284 ], [ 14.19138, 36.06204 ], [ 14.18475, 36.06597 ], [ 14.18533, 36.07344 ], [ 14.19768, 36.07442 ], [ 14.2128, 36.07985 ], [ 14.21677, 36.08059 ] ] ] ] } }