{
    "type": "FeatureCollection",
    "features": [
      {
        "type": "Feature",
        "properties": {},
        "geometry": {
          "type": "Polygon",
          "coordinates": [
            [
              [
                18.47900390625,
                42.873951296240556
              ],
              [
                18.44879150390625,
                42.44980808481614
              ],
              [
                19.37164306640625,
                41.84910468610387
              ],
              [
                19.390869140625,
                42.10433598038485
              ],
              [
                19.27276611328125,
                42.18375873465217
              ],
              [
                19.52545166015625,
                42.474122772511485
              ],
              [
                18.94317626953125,
                42.81353658623225
              ],
              [
                18.47900390625,
                42.873951296240556
              ]
            ]
          ]
        }
      }
    ]
  }