{
    "type": "FeatureCollection",
    "features": [
      {
        "type": "Feature",
        "properties": {},
        "geometry": {
          "type": "Polygon",
          "coordinates": [
            [
              [
                -2.933349609375,
                35.43381992014202
              ],
              [
                -3.53759765625,
                35.34425514918409
              ],
              [
                -4.21875,
                35.25459097465022
              ],
              [
                -4.833984374999999,
                35.290468565908775
              ],
              [
                -5.218505859375,
                35.764343479667176
              ],
              [
                -5.33935546875,
                35.99578538642032
              ],
              [
                -5.9326171875,
                35.79108281624994
              ],
              [
                -6.943359374999999,
                34.161818161230386
              ],
              [
                -9.283447265625,
                32.731840896865684
              ],
              [
                -9.3603515625,
                32.2313896627376
              ],
              [
                -9.99755859375,
                30.89279747750818
              ],
              [
                -9.700927734375,
                30.334953881988564
              ],
              [
                -11.35986328125,
                28.555576049185973
              ],
              [
                -12.919921874999998,
                28.023500048883022
              ],
              [
                -13.3154296875,
                27.556981920338316
              ],
              [
                -13.447265624999998,
                26.990618722964737
              ],
              [
                -9.2724609375,
                28.323724553546015
              ],
              [
                -5.9326171875,
                30.609549797190844
              ],
              [
                -5.086669921875,
                31.27855085894653
              ],
              [
                -5.372314453125,
                31.512995857454676
              ],
              [
                -3.7683105468749996,
                31.87755764334002
              ],
              [
                -2.1533203125,
                31.55981453201843
              ],
              [
                -1.1865234375,
                32.05464469054932
              ],
              [
                -0.999755859375,
                32.509761735919426
              ],
              [
                -1.6864013671875,
                33.696922692957685
              ],
              [
                -1.77154541015625,
                34.73484137177769
              ],
              [
                -2.18902587890625,
                35.106428057364255
              ],
              [
                -2.42523193359375,
                35.146862906756304
              ],
              [
                -2.64495849609375,
                35.1041810882765
              ],
              [
                -2.933349609375,
                35.32408937278183
              ],
              [
                -2.933349609375,
                35.43381992014202
              ]
            ]
          ]
        }
      }
    ]
  }