{
    "type": "FeatureCollection",
    "features": [
      {
        "type": "Feature",
        "properties": {},
        "geometry": {
          "type": "Polygon",
          "coordinates": [
            [
              [
                13.38134765625,
                45.7387765043515
              ],
              [
                13.4088134765625,
                45.67548217560647
              ],
              [
                13.539276123046875,
                45.72439772280638
              ],
              [
                13.522796630859375,
                45.77901739936284
              ],
              [
                13.632659912109375,
                45.766564985445
              ],
              [
                13.756256103515625,
                45.644768217751924
              ],
              [
                13.73291015625,
                45.6101948758674
              ],
              [
                13.699951171875,
                45.592900208269825
              ],
              [
                13.701324462890625,
                45.55252525134013
              ],
              [
                13.55987548828125,
                45.53040285599187
              ],
              [
                13.577728271484373,
                45.47650323381734
              ],
              [
                13.932037353515625,
                45.45627757127799
              ],
              [
                13.912811279296875,
                45.57752269483689
              ],
              [
                14.322052001953125,
                45.48228066163947
              ],
              [
                13.6395263671875,
                45.979786584921676
              ],
              [
                13.38134765625,
                45.7387765043515
              ]
            ]
          ]
        }
      }
    ]
  }