{
    "type": "FeatureCollection",
    "features": [
      {
        "type": "Feature",
        "properties": {},
        "geometry": {
          "type": "Polygon",
          "coordinates": [
            [
              [
                3.14208984375,
                42.431565872579185
              ],
              [
                -6.800537109375,
                42.54498667313236
              ],
              [
                -6.56982421875,
                41.96153247330561
              ],
              [
                -6.572570800781249,
                41.734429390721
              ],
              [
                -6.429748535156249,
                41.68522004222073
              ],
              [
                -6.19354248046875,
                41.57847058443442
              ],
              [
                -6.8499755859375,
                41.03585891144301
              ],
              [
                -6.78131103515625,
                40.36747374615593
              ],
              [
                -7.020263671875,
                40.22082997283287
              ],
              [
                -6.921386718749999,
                40.082274490356966
              ],
              [
                -7.012023925781249,
                39.67125632523974
              ],
              [
                -7.5311279296875,
                39.66702799810167
              ],
              [
                -7.325134277343749,
                39.364032338047984
              ],
              [
                -6.96807861328125,
                39.04691915968501
              ],
              [
                -7.3223876953125,
                38.50304202775689
              ],
              [
                -7.086181640625,
                38.18638677411551
              ],
              [
                -7.478942871093749,
                37.63163475580643
              ],
              [
                -7.393798828125,
                37.18657859524883
              ],
              [
                -7.042236328124999,
                37.309014074275915
              ],
              [
                -5.592041015625,
                36.02244668175846
              ],
              [
                -4.976806640625,
                36.500805317604794
              ],
              [
                -2.186279296875,
                36.79169061907076
              ],
              [
                0.208740234375,
                38.7283759182398
              ],
              [
                -0.318603515625,
                39.470125122358176
              ],
              [
                0.626220703125,
                40.79717741518766
              ],
              [
                3.2080078125,
                41.91045347666418
              ],
              [
                3.14208984375,
                42.431565872579185
              ]
            ]
          ]
        }
      }
    ]
  }