{
    "type": "FeatureCollection",
    "features": [
      {
        "type": "Feature",
        "properties": {},
        "geometry": {
          "type": "Polygon",
          "coordinates": [
            [
              [
                35.83740234375,
                35.9157474194997
              ],
              [
                35.68359375,
                35.54116627999815
              ],
              [
                35.848388671875,
                34.6241677899049
              ],
              [
                34.244384765625,
                31.42866311735861
              ],
              [
                34.661865234375,
                31.194007509998823
              ],
              [
                35.7000732421875,
                29.458731185355344
              ],
              [
                35.9527587890625,
                30.600093873550072
              ],
              [
                37.913818359375,
                32.32427558887655
              ],
              [
                36.683349609375,
                33.52307880890422
              ],
              [
                37.82592773437499,
                36.04021586880111
              ],
              [
                42.6708984375,
                36.86204269508728
              ],
              [
                42.857666015625,
                37.23032838760387
              ],
              [
                42.099609375,
                37.91820111976663
              ],
              [
                40.0341796875,
                38.28131307922966
              ],
              [
                36.61743164062499,
                38.08268954483802
              ],
              [
                36.177978515625,
                37.82280243352756
              ],
              [
                35.83740234375,
                35.9157474194997
              ]
            ]
          ]
        }
      }
    ]
  }