{
    "type": "FeatureCollection",
    "features": [
      {
        "type": "Feature",
        "properties": {},
        "geometry": {
          "type": "Polygon",
          "coordinates": [
            [
              [
                -4.501347541809082,
                36.71986351004067
              ],
              [
                -4.5014119148254395,
                36.71962271257377
              ],
              [
                -4.501304626464844,
                36.719330314634824
              ],
              [
                -4.501240253448486,
                36.717111494006865
              ],
              [
                -4.501347541809082,
                36.7169050888298
              ],
              [
                -4.5012617111206055,
                36.71666428208896
              ],
              [
                -4.500982761383057,
                36.716526677898145
              ],
              [
                -4.500918388366699,
                36.71423897211518
              ],
              [
                -4.500939846038818,
                36.71365413413949
              ],
              [
                -4.500274658203125,
                36.713619731766975
              ],
              [
                -4.498536586761475,
                36.713619731766975
              ],
              [
                -4.496519565582275,
                36.713740140003345
              ],
              [
                -4.493815898895264,
                36.713980955909975
              ],
              [
                -4.491240978240967,
                36.71401535812074
              ],
              [
                -4.487979412078857,
                36.714066961407994
              ],
              [
                -4.485898017883301,
                36.714084162496036
              ],
              [
                -4.483816623687744,
                36.714032559220335
              ],
              [
                -4.48192834854126,
                36.71401535812074
              ],
              [
                -4.479246139526366,
                36.71396375479883
              ],
              [
                -4.477357864379883,
                36.713912151442244
              ],
              [
                -4.475898742675781,
                36.713791743475454
              ],
              [
                -4.474503993988037,
                36.71367133531997
              ],
              [
                -4.472980499267578,
                36.71351652455704
              ],
              [
                -4.471457004547118,
                36.71341331720846
              ],
              [
                -4.466736316680908,
                36.71320690209539
              ],
              [
                -4.467637538909912,
                36.716887888373336
              ],
              [
                -4.467766284942627,
                36.717111494006865
              ],
              [
                -4.467980861663818,
                36.71735229934583
              ],
              [
                -4.46793794631958,
                36.717661905101075
              ],
              [
                -4.467980861663818,
                36.71810911121126
              ],
              [
                -4.468023777008056,
                36.718487514347935
              ],
              [
                -4.468710422515869,
                36.71960551272582
              ],
              [
                -4.46943998336792,
                36.71950231355724
              ],
              [
                -4.470405578613281,
                36.719330314634824
              ],
              [
                -4.471371173858643,
                36.719123915419566
              ],
              [
                -4.471886157989502,
                36.7190035156212
              ],
              [
                -4.47240114212036,
                36.718831515581925
              ],
              [
                -4.473452568054199,
                36.718487514347935
              ],
              [
                -4.474117755889893,
                36.71838431367735
              ],
              [
                -4.474740028381348,
                36.718470314245785
              ],
              [
                -4.475576877593994,
                36.7188143155568
              ],
              [
                -4.476349353790283,
                36.719089515496435
              ],
              [
                -4.4773149490356445,
                36.7193475145444
              ],
              [
                -4.478580951690674,
                36.71950231355724
              ],
              [
                -4.479610919952393,
                36.71950231355724
              ],
              [
                -4.480404853820801,
                36.71938191435199
              ],
              [
                -4.481370449066162,
                36.71914111537535
              ],
              [
                -4.482228755950928,
                36.718831515581925
              ],
              [
                -4.48214292526245,
                36.718332713290046
              ],
              [
                -4.48214292526245,
                36.71759310392997
              ],
              [
                -4.482507705688477,
                36.71707709318252
              ],
              [
                -4.494996070861816,
                36.71886591562057
              ],
              [
                -4.495511054992676,
                36.71914111537535
              ],
              [
                -4.495811462402343,
                36.720585897912216
              ],
              [
                -4.4965410232543945,
                36.7205514986438
              ],
              [
                -4.498472213745117,
                36.720207505112526
              ],
              [
                -4.501347541809082,
                36.71986351004067
              ]
            ]
          ]
        }
      }
    ]
  }