{
    "type": "FeatureCollection",
    "features": [
      {
        "type": "Feature",
        "properties": {},
        "geometry": {
          "type": "Polygon",
          "coordinates": [
            [
              [
                16.1279296875,
                31.240985378021307
              ],
              [
                15.644531250000002,
                31.47083898476439
              ],
              [
                15.38360595703125,
                31.93584765329943
              ],
              [
                15.375366210937498,
                32.18258649653828
              ],
              [
                15.216064453125,
                32.4031537914036
              ],
              [
                14.71893310546875,
                32.46342595776104
              ],
              [
                14.441528320312498,
                32.553758616640046
              ],
              [
                14.235534667968748,
                32.706422286395664
              ],
              [
                14.01031494140625,
                32.74570253945518
              ],
              [
                13.80706787109375,
                32.80805323886752
              ],
              [
                13.614807128906248,
                32.80112754111693
              ],
              [
                13.356628417968748,
                32.914179661793504
              ],
              [
                13.21929931640625,
                32.9257074887604
              ],
              [
                12.952880859375,
                32.831135000359815
              ],
              [
                12.722167968749998,
                32.80112754111693
              ],
              [
                12.359619140624998,
                32.82305706600969
              ],
              [
                11.700439453125,
                33.127201123747774
              ],
              [
                11.19232177734375,
                33.332823028503576
              ],
              [
                11.09893798828125,
                33.44060944370356
              ],
              [
                11.151123046874998,
                33.516209361109055
              ],
              [
                11.00555419921875,
                33.68549637289138
              ],
              [
                11.085205078125,
                33.815666308702774
              ],
              [
                10.86822509765625,
                33.947916898356404
              ],
              [
                10.72540283203125,
                33.89093747081252
              ],
              [
                10.71441650390625,
                33.815666308702774
              ],
              [
                10.69793701171875,
                33.72662401401029
              ],
              [
                10.47821044921875,
                33.660353121928814
              ],
              [
                10.36834716796875,
                33.715201644740844
              ],
              [
                10.1129150390625,
                33.94108137920573
              ],
              [
                9.88494873046875,
                33.90917503325776
              ],
              [
                10.34088134765625,
                32.85190345738802
              ],
              [
                11.74163818359375,
                32.69486597787505
              ],
              [
                12.2113037109375,
                32.30570601389429
              ],
              [
                11.0797119140625,
                32.043004727893994
              ],
              [
                11.0247802734375,
                31.963813739260456
              ],
              [
                14.0130615234375,
                31.693118831385902
              ],
              [
                15.14190673828125,
                31.269160890477654
              ],
              [
                15.37811279296875,
                31.194007509998823
              ],
              [
                16.1279296875,
                31.240985378021307
              ]
            ]
          ]
        }
      }
    ]
  }