{
    "type": "FeatureCollection",
    "features": [
      {
        "type": "Feature",
        "properties": {},
        "geometry": {
          "type": "Polygon",
          "coordinates": [
            [
              [
                23.994140624999996,
                41.21172151054787
              ],
              [
                24.697265625,
                39.926588421909436
              ],
              [
                24.67529296875,
                39.18117526158749
              ],
              [
                25.37841796875,
                38.02213147353745
              ],
              [
                26.641845703125,
                36.641977814705946
              ],
              [
                27.9931640625,
                35.585851593232356
              ],
              [
                28.6083984375,
                36.29741818650811
              ],
              [
                29.0478515625,
                36.43896124085945
              ],
              [
                29.091796875,
                36.363798554158635
              ],
              [
                29.597167968750004,
                36.075742215627
              ],
              [
                30.294799804687504,
                36.266421331439375
              ],
              [
                30.41015625,
                36.15118243124803
              ],
              [
                30.7177734375,
                36.787291466820015
              ],
              [
                31.343994140625,
                36.73888412439431
              ],
              [
                32.607421875,
                35.90684930677121
              ],
              [
                32.08007812499999,
                34.994003757575776
              ],
              [
                32.51953125,
                34.43409789359469
              ],
              [
                33.651123046875,
                34.53371242139564
              ],
              [
                34.222412109375,
                35.04798673426734
              ],
              [
                34.62890625,
                35.63051198300061
              ],
              [
                34.595947265625,
                35.755428369259626
              ],
              [
                32.9150390625,
                35.48751102385376
              ],
              [
                32.728271484375,
                35.92464453144099
              ],
              [
                33.167724609375,
                36.05798104702501
              ],
              [
                34.0576171875,
                36.146746777814364
              ],
              [
                34.815673828125,
                36.69485094156225
              ],
              [
                36.05712890625,
                35.871246850027966
              ],
              [
                36.67236328125,
                36.914764288955936
              ],
              [
                35.77148437499999,
                38.39333888832238
              ],
              [
                29.46533203125,
                41.062786068733026
              ],
              [
                27.35595703125,
                41.376808565702355
              ],
              [
                25.13671875,
                41.541477666790286
              ],
              [
                23.994140624999996,
                41.21172151054787
              ]
            ]
          ]
        }
      }
    ]
  }